[{"OBJECT_NAME":"BUFENG 1A","OBJECT_ID":"2019-032A","EPOCH":"2026-03-09T22:03:27.507168","MEAN_MOTION":15.26012088,"ECCENTRICITY":0.00054719,"INCLINATION":44.9758,"RA_OF_ASC_NODE":238.6688,"ARG_OF_PERICENTER":55.4463,"MEAN_ANOMALY":304.6935,"EPHEMERIS_TYPE":0,"CLASSIFICATION_TYPE":"U","NORAD_CAT_ID":44310,"ELEMENT_SET_NO":999,"REV_AT_EPOCH":37201,"BSTAR":0.00062413703,"MEAN_MOTION_DOT":0.00016103,"MEAN_MOTION_DDOT":0},{"OBJECT_NAME":"STARLINK-31863","OBJECT_ID":"2024-093H","EPOCH":"2026-03-09T11:03:00.877248","MEAN_MOTION":15.27574977,"ECCENTRICITY":0.00012195,"INCLINATION":43.0004,"RA_OF_ASC_NODE":209.9087,"ARG_OF_PERICENTER":266.9233,"MEAN_ANOMALY":93.1479,"EPHEMERIS_TYPE":0,"CLASSIFICATION_TYPE":"U","NORAD_CAT_ID":59789,"ELEMENT_SET_NO":999,"REV_AT_EPOCH":10266,"BSTAR":4.3257633e-5,"MEAN_MOTION_DOT":9.28e-6,"MEAN_MOTION_DDOT":0}]
